{
	"@type":"com.bokesoft.cms2.impl.buildin.modelio.vo.PageVO",
	"attributes":{"@type":"java.util.LinkedHashMap"},
	"code":"home",
	"deliveryVOs":[
		{
			"@type":"com.bokesoft.cms2.impl.buildin.modelio.vo.PageVO$DeliveryVO",
			"areaCode":"main-menu",
			"blockCode":"PUBLIC.MAIN-MENU",
			"groupName":"",
			"name":"首页菜单",
			"options":[
				"Raw"
			],
			"parameters":{"@type":"java.util.HashMap"},
			"sequence":"1"
		},
		{
			"@type":"com.bokesoft.cms2.impl.buildin.modelio.vo.PageVO$DeliveryVO",
			"areaCode":"left-sidebar",
			"blockCode":"HOME.HOMEUSERINFO",
			"groupName":"",
			"name":"首页用户信息",
			"options":[
				"Raw"
			],
			"parameters":{"@type":"java.util.HashMap"},
			"sequence":"2"
		},
		{
			"@type":"com.bokesoft.cms2.impl.buildin.modelio.vo.PageVO$DeliveryVO",
			"areaCode":"left-sidebar",
			"blockCode":"HOME.CREATWFOPTION",
			"groupName":"",
			"name":"创建流程",
			"options":[
				"Raw"
			],
			"parameters":{"@type":"java.util.HashMap"},
			"sequence":"3"
		},
		{
			"@type":"com.bokesoft.cms2.impl.buildin.modelio.vo.PageVO$DeliveryVO",
			"areaCode":"left-sidebar",
			"blockCode":"HOME.TODOLIST",
			"groupName":"",
			"name":"待办事项",
			"options":[
				"WithHeader"
			],
			"parameters":{"@type":"java.util.HashMap"},
			"sequence":"4"
		},
		{
			"@type":"com.bokesoft.cms2.impl.buildin.modelio.vo.PageVO$DeliveryVO",
			"areaCode":"content",
			"blockCode":"HOME.COMPANYDYNAMIC",
			"groupName":"",
			"name":"公司动态",
			"options":[
				"WithHeader"
			],
			"parameters":{"@type":"java.util.HashMap"},
			"sequence":"5"
		},
		{
			"@type":"com.bokesoft.cms2.impl.buildin.modelio.vo.PageVO$DeliveryVO",
			"areaCode":"content",
			"blockCode":"HOME.MIDNEWS",
			"groupName":"首页中部新闻",
			"name":"公司新闻",
			"options":[
				"WithHeader"
			],
			"parameters":{"@type":"java.util.HashMap",
				"typecode":"01"
			},
			"sequence":"6"
		},
		{
			"@type":"com.bokesoft.cms2.impl.buildin.modelio.vo.PageVO$DeliveryVO",
			"areaCode":"content",
			"blockCode":"HOME.MIDNEWS",
			"groupName":"首页中部新闻",
			"name":"媒体报道",
			"options":[
				"WithHeader"
			],
			"parameters":{"@type":"java.util.HashMap",
				"typecode":"02"
			},
			"sequence":"7"
		},
		{
			"@type":"com.bokesoft.cms2.impl.buildin.modelio.vo.PageVO$DeliveryVO",
			"areaCode":"content",
			"blockCode":"HOME.MIDNEWS",
			"groupName":"首页中部新闻",
			"name":"方案中心",
			"options":[
				"WithHeader"
			],
			"parameters":{"@type":"java.util.HashMap",
				"typecode":"06"
			},
			"sequence":"8"
		},
		{
			"@type":"com.bokesoft.cms2.impl.buildin.modelio.vo.PageVO$DeliveryVO",
			"areaCode":"content",
			"blockCode":"HOME.MIDNEWS",
			"groupName":"首页中下部内容",
			"name":"资料下载",
			"options":[
				"WithHeader"
			],
			"parameters":{"@type":"java.util.HashMap",
				"typecode":"04"
			},
			"sequence":"9"
		},
		{
			"@type":"com.bokesoft.cms2.impl.buildin.modelio.vo.PageVO$DeliveryVO",
			"areaCode":"content",
			"blockCode":"HOME.MIDNEWS",
			"groupName":"首页中下部内容",
			"name":"福利待遇",
			"options":[
				"WithHeader"
			],
			"parameters":{"@type":"java.util.HashMap",
				"typecode":"03"
			},
			"sequence":"10"
		},
		{
			"@type":"com.bokesoft.cms2.impl.buildin.modelio.vo.PageVO$DeliveryVO",
			"areaCode":"right-sidebar",
			"blockCode":"HOME.HOMESEARCH",
			"groupName":"",
			"name":"全文搜索",
			"options":[
				"Raw"
			],
			"parameters":{"@type":"java.util.HashMap"},
			"sequence":"11"
		},
		{
			"@type":"com.bokesoft.cms2.impl.buildin.modelio.vo.PageVO$DeliveryVO",
			"areaCode":"right-sidebar",
			"blockCode":"HOME.HOMENOTICE",
			"groupName":"",
			"name":"总裁语录",
			"options":[
				"WithHeader"
			],
			"parameters":{"@type":"java.util.HashMap",
				"typecode":"08"
			},
			"sequence":"12"
		},
		{
			"@type":"com.bokesoft.cms2.impl.buildin.modelio.vo.PageVO$DeliveryVO",
			"areaCode":"right-sidebar",
			"blockCode":"HOME.HOMENOTICE",
			"groupName":"",
			"name":"通知公告",
			"options":[
				"WithHeader"
			],
			"parameters":{"@type":"java.util.HashMap",
				"typecode":"07"
			},
			"sequence":"13"
		},
		{
			"@type":"com.bokesoft.cms2.impl.buildin.modelio.vo.PageVO$DeliveryVO",
			"areaCode":"right-sidebar",
			"blockCode":"HOME.HOMEMEETING",
			"groupName":"",
			"name":"会议管理",
			"options":[
				"WithHeader"
			],
			"parameters":{"@type":"java.util.HashMap"},
			"sequence":"14"
		},
		{
			"@type":"com.bokesoft.cms2.impl.buildin.modelio.vo.PageVO$DeliveryVO",
			"areaCode":"OffenLinksRow",
			"blockCode":"HOME.OFFENLINKS",
			"groupName":"",
			"name":"常用链接",
			"options":[
				"WithHeader"
			],
			"parameters":{"@type":"java.util.HashMap"},
			"sequence":"15"
		}
	],
	"enabled":true,
	"groups":[
		{
			"groupName":""
		},
		{
			"groupName":""
		},
		{
			"groupName":""
		},
		{
			"groupName":"首页中部新闻"
		},
		{
			"groupName":"首页中下部内容"
		},
		{
			"groupName":""
		},
		{
			"groupName":""
		}
	],
	"name":"首页",
	"title":"首页",
	"tmplCode":"HOME.OA-HOME",
	"url":"/home.page"
}